[{"OBJECT_NAME":"HULIANWANG DIGUI-33","OBJECT_ID":"2025-121D","EPOCH":"2026-03-04T03:11:58.474752","MEAN_MOTION":13.24425378,"ECCENTRICITY":0.0002083,"INCLINATION":86.4965,"RA_OF_ASC_NODE":49.0356,"ARG_OF_PERICENTER":78.5968,"MEAN_ANOMALY":281.54,"EPHEMERIS_TYPE":0,"CLASSIFICATION_TYPE":"U","NORAD_CAT_ID":64286,"ELEMENT_SET_NO":999,"REV_AT_EPOCH":3625,"BSTAR":0.00013187,"MEAN_MOTION_DOT":7.1e-7,"MEAN_MOTION_DDOT":0},{"OBJECT_NAME":"HULIANWANG DIGUI-34","OBJECT_ID":"2025-121E","EPOCH":"2026-03-04T03:01:10.084224","MEAN_MOTION":13.24424193,"ECCENTRICITY":0.0002236,"INCLINATION":86.4942,"RA_OF_ASC_NODE":48.9702,"ARG_OF_PERICENTER":74.8507,"MEAN_ANOMALY":285.2874,"EPHEMERIS_TYPE":0,"CLASSIFICATION_TYPE":"U","NORAD_CAT_ID":64287,"ELEMENT_SET_NO":999,"REV_AT_EPOCH":3625,"BSTAR":7.2761e-5,"MEAN_MOTION_DOT":4.6e-7,"MEAN_MOTION_DDOT":0},{"OBJECT_NAME":"HULIANWANG DIGUI-35","OBJECT_ID":"2025-159A","EPOCH":"2026-03-04T04:01:39.273024","MEAN_MOTION":13.24417047,"ECCENTRICITY":0.0001294,"INCLINATION":86.4987,"RA_OF_ASC_NODE":317.9294,"ARG_OF_PERICENTER":70.9804,"MEAN_ANOMALY":289.147,"EPHEMERIS_TYPE":0,"CLASSIFICATION_TYPE":"U","NORAD_CAT_ID":64956,"ELEMENT_SET_NO":999,"REV_AT_EPOCH":2922,"BSTAR":0.00012865,"MEAN_MOTION_DOT":7.0e-7,"MEAN_MOTION_DDOT":0},{"OBJECT_NAME":"HULIANWANG DIGUI-36","OBJECT_ID":"2025-159B","EPOCH":"2026-03-04T03:50:30.092064","MEAN_MOTION":13.24419724,"ECCENTRICITY":0.0001376,"INCLINATION":86.5007,"RA_OF_ASC_NODE":317.9696,"ARG_OF_PERICENTER":70.4039,"MEAN_ANOMALY":289.7244,"EPHEMERIS_TYPE":0,"CLASSIFICATION_TYPE":"U","NORAD_CAT_ID":64957,"ELEMENT_SET_NO":999,"REV_AT_EPOCH":2922,"BSTAR":0.00013822,"MEAN_MOTION_DOT":7.4e-7,"MEAN_MOTION_DDOT":0},{"OBJECT_NAME":"HULIANWANG DIGUI-37","OBJECT_ID":"2025-159C","EPOCH":"2026-03-04T03:39:38.438208","MEAN_MOTION":13.24419295,"ECCENTRICITY":0.0001456,"INCLINATION":86.4948,"RA_OF_ASC_NODE":317.8348,"ARG_OF_PERICENTER":68.1978,"MEAN_ANOMALY":291.9311,"EPHEMERIS_TYPE":0,"CLASSIFICATION_TYPE":"U","NORAD_CAT_ID":64958,"ELEMENT_SET_NO":999,"REV_AT_EPOCH":2922,"BSTAR":0.00010376,"MEAN_MOTION_DOT":5.9e-7,"MEAN_MOTION_DDOT":0},{"OBJECT_NAME":"HULIANWANG DIGUI-38","OBJECT_ID":"2025-159D","EPOCH":"2026-03-04T03:28:47.415936","MEAN_MOTION":13.24419525,"ECCENTRICITY":0.0001434,"INCLINATION":86.5007,"RA_OF_ASC_NODE":317.9624,"ARG_OF_PERICENTER":70.7157,"MEAN_ANOMALY":289.4132,"EPHEMERIS_TYPE":0,"CLASSIFICATION_TYPE":"U","NORAD_CAT_ID":64959,"ELEMENT_SET_NO":999,"REV_AT_EPOCH":2922,"BSTAR":0.00013585,"MEAN_MOTION_DOT":7.3e-7,"MEAN_MOTION_DDOT":0},{"OBJECT_NAME":"HULIANWANG DIGUI-39","OBJECT_ID":"2025-159E","EPOCH":"2026-03-04T03:17:53.615904","MEAN_MOTION":13.24419645,"ECCENTRICITY":0.0001438,"INCLINATION":86.4983,"RA_OF_ASC_NODE":317.905,"ARG_OF_PERICENTER":71.9399,"MEAN_ANOMALY":288.1892,"EPHEMERIS_TYPE":0,"CLASSIFICATION_TYPE":"U","NORAD_CAT_ID":64960,"ELEMENT_SET_NO":999,"REV_AT_EPOCH":2922,"BSTAR":0.00013282,"MEAN_MOTION_DOT":7.2e-7,"MEAN_MOTION_DDOT":0},{"OBJECT_NAME":"HULIANWANG DIGUI-40","OBJECT_ID":"2025-162A","EPOCH":"2026-03-04T03:22:36.067872","MEAN_MOTION":13.29332109,"ECCENTRICITY":0.0001019,"INCLINATION":49.999,"RA_OF_ASC_NODE":282.7324,"ARG_OF_PERICENTER":69.8346,"MEAN_ANOMALY":290.2636,"EPHEMERIS_TYPE":0,"CLASSIFICATION_TYPE":"U","NORAD_CAT_ID":65043,"ELEMENT_SET_NO":999,"REV_AT_EPOCH":2937,"BSTAR":0.00011571,"MEAN_MOTION_DOT":-7.0e-7,"MEAN_MOTION_DDOT":0},{"OBJECT_NAME":"HULIANWANG DIGUI-41","OBJECT_ID":"2025-162B","EPOCH":"2026-03-04T03:10:34.449888","MEAN_MOTION":13.29332531,"ECCENTRICITY":0.0001058,"INCLINATION":50.0001,"RA_OF_ASC_NODE":282.7062,"ARG_OF_PERICENTER":69.7839,"MEAN_ANOMALY":290.3146,"EPHEMERIS_TYPE":0,"CLASSIFICATION_TYPE":"U","NORAD_CAT_ID":65044,"ELEMENT_SET_NO":999,"REV_AT_EPOCH":2938,"BSTAR":0.00015081,"MEAN_MOTION_DOT":-5.4e-7,"MEAN_MOTION_DDOT":0},{"OBJECT_NAME":"HULIANWANG DIGUI-42","OBJECT_ID":"2025-162C","EPOCH":"2026-03-04T02:58:30.275328","MEAN_MOTION":13.29331911,"ECCENTRICITY":9.95e-5,"INCLINATION":49.9966,"RA_OF_ASC_NODE":282.6011,"ARG_OF_PERICENTER":70.8504,"MEAN_ANOMALY":289.2475,"EPHEMERIS_TYPE":0,"CLASSIFICATION_TYPE":"U","NORAD_CAT_ID":65045,"ELEMENT_SET_NO":999,"REV_AT_EPOCH":2938,"BSTAR":0.00014519,"MEAN_MOTION_DOT":-5.7e-7,"MEAN_MOTION_DDOT":0},{"OBJECT_NAME":"HULIANWANG DIGUI-43","OBJECT_ID":"2025-162D","EPOCH":"2026-03-04T02:46:26.804928","MEAN_MOTION":13.29332954,"ECCENTRICITY":9.93e-5,"INCLINATION":49.9983,"RA_OF_ASC_NODE":282.5893,"ARG_OF_PERICENTER":70.1431,"MEAN_ANOMALY":289.9548,"EPHEMERIS_TYPE":0,"CLASSIFICATION_TYPE":"U","NORAD_CAT_ID":65046,"ELEMENT_SET_NO":999,"REV_AT_EPOCH":2938,"BSTAR":0.00015019,"MEAN_MOTION_DOT":-5.4e-7,"MEAN_MOTION_DDOT":0},{"OBJECT_NAME":"HULIANWANG DIGUI-44","OBJECT_ID":"2025-162E","EPOCH":"2026-03-04T02:34:00.429888","MEAN_MOTION":13.29340503,"ECCENTRICITY":7.86e-5,"INCLINATION":50.001,"RA_OF_ASC_NODE":282.5919,"ARG_OF_PERICENTER":349.1261,"MEAN_ANOMALY":10.9594,"EPHEMERIS_TYPE":0,"CLASSIFICATION_TYPE":"U","NORAD_CAT_ID":65047,"ELEMENT_SET_NO":999,"REV_AT_EPOCH":2939,"BSTAR":0.00012662,"MEAN_MOTION_DOT":-6.5e-7,"MEAN_MOTION_DDOT":0},{"OBJECT_NAME":"HULIANWANG DIGUI-45","OBJECT_ID":"2025-162F","EPOCH":"2026-03-04T02:22:26.277600","MEAN_MOTION":13.29332823,"ECCENTRICITY":0.0001048,"INCLINATION":50.004,"RA_OF_ASC_NODE":282.6036,"ARG_OF_PERICENTER":69.6512,"MEAN_ANOMALY":290.4473,"EPHEMERIS_TYPE":0,"CLASSIFICATION_TYPE":"U","NORAD_CAT_ID":65048,"ELEMENT_SET_NO":999,"REV_AT_EPOCH":2938,"BSTAR":0.0001288,"MEAN_MOTION_DOT":-6.4e-7,"MEAN_MOTION_DDOT":0},{"OBJECT_NAME":"HULIANWANG DIGUI-46","OBJECT_ID":"2025-162G","EPOCH":"2026-03-04T02:10:24.345984","MEAN_MOTION":13.29332778,"ECCENTRICITY":0.0001048,"INCLINATION":50.0058,"RA_OF_ASC_NODE":282.5927,"ARG_OF_PERICENTER":72.0645,"MEAN_ANOMALY":288.0341,"EPHEMERIS_TYPE":0,"CLASSIFICATION_TYPE":"U","NORAD_CAT_ID":65049,"ELEMENT_SET_NO":999,"REV_AT_EPOCH":2938,"BSTAR":0.00013121,"MEAN_MOTION_DOT":-6.3e-7,"MEAN_MOTION_DDOT":0},{"OBJECT_NAME":"HULIANWANG DIGUI-47","OBJECT_ID":"2025-162H","EPOCH":"2026-03-04T01:58:22.353024","MEAN_MOTION":13.29332636,"ECCENTRICITY":0.0001025,"INCLINATION":50.0022,"RA_OF_ASC_NODE":282.4874,"ARG_OF_PERICENTER":73.0265,"MEAN_ANOMALY":287.072,"EPHEMERIS_TYPE":0,"CLASSIFICATION_TYPE":"U","NORAD_CAT_ID":65050,"ELEMENT_SET_NO":999,"REV_AT_EPOCH":2938,"BSTAR":0.00013225,"MEAN_MOTION_DOT":-6.3e-7,"MEAN_MOTION_DDOT":0},{"OBJECT_NAME":"HULIANWANG DIGUI-48","OBJECT_ID":"2025-162J","EPOCH":"2026-03-04T01:46:22.462176","MEAN_MOTION":13.29332113,"ECCENTRICITY":0.0001016,"INCLINATION":50.0032,"RA_OF_ASC_NODE":282.4611,"ARG_OF_PERICENTER":70.9465,"MEAN_ANOMALY":289.1517,"EPHEMERIS_TYPE":0,"CLASSIFICATION_TYPE":"U","NORAD_CAT_ID":65051,"ELEMENT_SET_NO":999,"REV_AT_EPOCH":2938,"BSTAR":0.00012664,"MEAN_MOTION_DOT":-6.5e-7,"MEAN_MOTION_DDOT":0}]
