HULIANWANG DIGUI-33     
1 64286U 25121D   26063.13331568  .00000071  00000+0  13187-3 0  9994
2 64286  86.4965  49.0356 0002083  78.5968 281.5400 13.24425378 36254
HULIANWANG DIGUI-34     
1 64287U 25121E   26063.12581116  .00000046  00000+0  72761-4 0  9996
2 64287  86.4942  48.9702 0002236  74.8507 285.2874 13.24424193 36251
HULIANWANG DIGUI-35     
1 64956U 25159A   26063.16781566  .00000070  00000+0  12865-3 0  9990
2 64956  86.4987 317.9294 0001294  70.9804 289.1470 13.24417047 29222
HULIANWANG DIGUI-36     
1 64957U 25159B   26063.16007051  .00000074  00000+0  13822-3 0  9999
2 64957  86.5007 317.9696 0001376  70.4039 289.7244 13.24419724 29228
HULIANWANG DIGUI-37     
1 64958U 25159C   26063.15252822  .00000059  00000+0  10376-3 0  9991
2 64958  86.4948 317.8348 0001456  68.1978 291.9311 13.24419295 29223
HULIANWANG DIGUI-38     
1 64959U 25159D   26063.14499324  .00000073  00000+0  13585-3 0  9992
2 64959  86.5007 317.9624 0001434  70.7157 289.4132 13.24419525 29222
HULIANWANG DIGUI-39     
1 64960U 25159E   26063.13742611  .00000072  00000+0  13282-3 0  9996
2 64960  86.4983 317.9050 0001438  71.9399 288.1892 13.24419645 29226
HULIANWANG DIGUI-40     
1 65043U 25162A   26063.14069523 -.00000070  00000+0  11571-3 0  9996
2 65043  49.9990 282.7324 0001019  69.8346 290.2636 13.29332109 29377
HULIANWANG DIGUI-41     
1 65044U 25162B   26063.13234317 -.00000054  00000+0  15081-3 0  9993
2 65044  50.0001 282.7062 0001058  69.7839 290.3146 13.29332531 29389
HULIANWANG DIGUI-42     
1 65045U 25162C   26063.12396152 -.00000057  00000+0  14519-3 0  9997
2 65045  49.9966 282.6011 0000995  70.8504 289.2475 13.29331911 29384
HULIANWANG DIGUI-43     
1 65046U 25162D   26063.11558802 -.00000054  00000+0  15019-3 0  9992
2 65046  49.9983 282.5893 0000993  70.1431 289.9548 13.29332954 29387
HULIANWANG DIGUI-44     
1 65047U 25162E   26063.10694942 -.00000065  00000+0  12662-3 0  9991
2 65047  50.0010 282.5919 0000786 349.1261  10.9594 13.29340503 29394
HULIANWANG DIGUI-45     
1 65048U 25162F   26063.09891525 -.00000064  00000+0  12880-3 0  9997
2 65048  50.0040 282.6036 0001048  69.6512 290.4473 13.29332823 29380
HULIANWANG DIGUI-46     
1 65049U 25162G   26063.09055956 -.00000063  00000+0  13121-3 0  9996
2 65049  50.0058 282.5927 0001048  72.0645 288.0341 13.29332778 29389
HULIANWANG DIGUI-47     
1 65050U 25162H   26063.08220316 -.00000063  00000+0  13225-3 0  9996
2 65050  50.0022 282.4874 0001025  73.0265 287.0720 13.29332636 29389
HULIANWANG DIGUI-48     
1 65051U 25162J   26063.07387109 -.00000065  00000+0  12664-3 0  9998
2 65051  50.0032 282.4611 0001016  70.9465 289.1517 13.29332113 29385
